KUIPER-00153            
1 65773U 25217M   26197.34650384 -.00000044  00000+0  23297-4 0  9998
2 65773  51.9018 176.7567 0000651  71.8343 288.2690 14.79930317 44176
KUIPER-00155            
1 65774U 25217N   26197.84887822  .00001468  00000+0  22157-3 0  9996
2 65774  51.9026 146.9986 0000799  74.0285 286.0765 14.79938874 44639
KUIPER-00156            
1 65775U 25217P   26197.24524779  .00001413  00000+0  21435-3 0  9998
2 65775  51.9014 177.1862 0000446  80.6754 279.4259 14.79931508 44157
KUIPER-00163            
1 65777U 25217R   26197.86225701  .00530726  14919-3  65062-3 0  9997
2 65777  51.8721 108.8820 0001621 155.8265 204.2828 16.07387254 45140
KUIPER-00165            
1 65778U 25217S   26197.23440766 -.00000429  00000+0 -27334-4 0  9996
2 65778  51.8997 187.1791 0000591  79.9640 280.1389 14.79926068 44010
KUIPER-00166            
1 65779U 25217T   26197.88941520  .00006724  00000+0  90911-3 0  9994
2 65779  51.9038 171.8337 0000752 311.0582  49.0316 14.79978374 44286
KUIPER-00167            
1 65780U 25217U   26197.42617997  .00000926  00000+0  15048-3 0  9990
2 65780  51.8949 196.2400 0000551  63.9540 296.1479 14.79935965 43906
KUIPER-00168            
1 65781U 25217V   26197.24254906  .00001073  00000+0  16969-3 0  9995
2 65781  51.9002 179.6484 0000600  62.8410 297.2614 14.79929483 44120
KUIPER-00169            
1 65782U 25217W   26197.43971758 -.00000519  00000+0 -39127-4 0  9996
2 65782  51.9002 183.7843 0000544 101.2282 258.8741 14.79930880 44080
KUIPER-00170            
1 65783U 25217X   26197.50186876  .00001069  00000+0  16925-3 0  9993
2 65783  51.8980 188.4680 0000542  65.5137 294.5882 14.79929585 44022
KUIPER-00172            
1 65785U 25217Z   26197.35190600  .00001278  00000+0  19662-3 0  9991
2 65785  51.8987 171.6609 0000885  86.7274 273.3789 14.79938257 44244
KUIPER-00173            
1 65786U 25217AA  26197.27084470  .00002431  00000+0  34776-3 0  9995
2 65786  51.9004 184.5270 0000635  72.8557 287.2475 14.79931938 44050
KUIPER-00174            
1 65787U 25217AB  26197.14120887 -.00000671  00000+0 -59030-4 0  9992
2 65787  51.9004 180.1497 0000634  60.6385 299.4640 14.79919193 44101
KUIPER-00176            
1 65788U 25217AC  26197.46269711  .00001088  00000+0  17174-3 0  9991
2 65788  51.8990 193.6625 0000467  68.5055 291.5957 14.79927323 43941
KUIPER-00101            
1 65947U 25228A   26197.27216882  .00001453  00000+0  21955-3 0  9998
2 65947  51.8976 151.9620 0000688  77.4036 282.7003 14.79933499 42277
KUIPER-00113            
1 65948U 25228B   26197.85157166  .00000326  00000+0  71779-4 0  9990
2 65948  51.8994 144.4202 0000822  65.7303 294.3745 14.79929442 42420
