{"fetched_at":"2026-07-17T06:37:49.595Z","source":"https://celestrak.org/NORAD/elements/gp.php?GROUP=kuiper&FORMAT=JSON","constellation":"kuiper","records":[{"OBJECT_NAME":"KUIPER-00153","OBJECT_ID":"2025-217M","EPOCH":"2026-07-16T08:18:57.931776","CLASSIFICATION_TYPE":"U","MEAN_MOTION":14.79930317,"ECCENTRICITY":0.0000651,"INCLINATION":51.9018,"RA_OF_ASC_NODE":176.7567,"ARG_OF_PERICENTER":71.8343,"MEAN_ANOMALY":288.269,"EPHEMERIS_TYPE":0,"NORAD_CAT_ID":65773,"ELEMENT_SET_NO":999,"REV_AT_EPOCH":4417,"BSTAR":0.000023297,"MEAN_MOTION_DOT":-4.4e-7,"MEAN_MOTION_DDOT":0},{"OBJECT_NAME":"KUIPER-00155","OBJECT_ID":"2025-217N","EPOCH":"2026-07-16T20:22:23.078208","CLASSIFICATION_TYPE":"U","MEAN_MOTION":14.79938874,"ECCENTRICITY":0.0000799,"INCLINATION":51.9026,"RA_OF_ASC_NODE":146.9986,"ARG_OF_PERICENTER":74.0285,"MEAN_ANOMALY":286.0765,"EPHEMERIS_TYPE":0,"NORAD_CAT_ID":65774,"ELEMENT_SET_NO":999,"REV_AT_EPOCH":4463,"BSTAR":0.00022157,"MEAN_MOTION_DOT":0.00001468,"MEAN_MOTION_DDOT":0},{"OBJECT_NAME":"KUIPER-00156","OBJECT_ID":"2025-217P","EPOCH":"2026-07-16T05:53:09.409056","CLASSIFICATION_TYPE":"U","MEAN_MOTION":14.79931508,"ECCENTRICITY":0.0000446,"INCLINATION":51.9014,"RA_OF_ASC_NODE":177.1862,"ARG_OF_PERICENTER":80.6754,"MEAN_ANOMALY":279.4259,"EPHEMERIS_TYPE":0,"NORAD_CAT_ID":65775,"ELEMENT_SET_NO":999,"REV_AT_EPOCH":4415,"BSTAR":0.00021435,"MEAN_MOTION_DOT":0.00001413,"MEAN_MOTION_DDOT":0},{"OBJECT_NAME":"KUIPER-00163","OBJECT_ID":"2025-217R","EPOCH":"2026-07-16T20:41:39.005664","CLASSIFICATION_TYPE":"U","MEAN_MOTION":16.07387254,"ECCENTRICITY":0.0001621,"INCLINATION":51.8721,"RA_OF_ASC_NODE":108.882,"ARG_OF_PERICENTER":155.8265,"MEAN_ANOMALY":204.2828,"EPHEMERIS_TYPE":0,"NORAD_CAT_ID":65777,"ELEMENT_SET_NO":999,"REV_AT_EPOCH":4514,"BSTAR":0.00065062,"MEAN_MOTION_DOT":0.00530726,"MEAN_MOTION_DDOT":0.00014919},{"OBJECT_NAME":"KUIPER-00165","OBJECT_ID":"2025-217S","EPOCH":"2026-07-16T05:37:32.821824","CLASSIFICATION_TYPE":"U","MEAN_MOTION":14.79926068,"ECCENTRICITY":0.0000591,"INCLINATION":51.8997,"RA_OF_ASC_NODE":187.1791,"ARG_OF_PERICENTER":79.964,"MEAN_ANOMALY":280.1389,"EPHEMERIS_TYPE":0,"NORAD_CAT_ID":65778,"ELEMENT_SET_NO":999,"REV_AT_EPOCH":4401,"BSTAR":-0.000027334,"MEAN_MOTION_DOT":-0.00000429,"MEAN_MOTION_DDOT":0},{"OBJECT_NAME":"KUIPER-00166","OBJECT_ID":"2025-217T","EPOCH":"2026-07-16T21:20:45.473280","CLASSIFICATION_TYPE":"U","MEAN_MOTION":14.79978374,"ECCENTRICITY":0.0000752,"INCLINATION":51.9038,"RA_OF_ASC_NODE":171.8337,"ARG_OF_PERICENTER":311.0582,"MEAN_ANOMALY":49.0316,"EPHEMERIS_TYPE":0,"NORAD_CAT_ID":65779,"ELEMENT_SET_NO":999,"REV_AT_EPOCH":4428,"BSTAR":0.00090911,"MEAN_MOTION_DOT":0.00006724,"MEAN_MOTION_DDOT":0},{"OBJECT_NAME":"KUIPER-00167","OBJECT_ID":"2025-217U","EPOCH":"2026-07-16T10:13:41.949408","CLASSIFICATION_TYPE":"U","MEAN_MOTION":14.79935965,"ECCENTRICITY":0.0000551,"INCLINATION":51.8949,"RA_OF_ASC_NODE":196.24,"ARG_OF_PERICENTER":63.954,"MEAN_ANOMALY":296.1479,"EPHEMERIS_TYPE":0,"NORAD_CAT_ID":65780,"ELEMENT_SET_NO":999,"REV_AT_EPOCH":4390,"BSTAR":0.00015048,"MEAN_MOTION_DOT":0.00000926,"MEAN_MOTION_DDOT":0},{"OBJECT_NAME":"KUIPER-00168","OBJECT_ID":"2025-217V","EPOCH":"2026-07-16T05:49:16.238784","CLASSIFICATION_TYPE":"U","MEAN_MOTION":14.79929483,"ECCENTRICITY":0.00006,"INCLINATION":51.9002,"RA_OF_ASC_NODE":179.6484,"ARG_OF_PERICENTER":62.841,"MEAN_ANOMALY":297.2614,"EPHEMERIS_TYPE":0,"NORAD_CAT_ID":65781,"ELEMENT_SET_NO":999,"REV_AT_EPOCH":4412,"BSTAR":0.00016969,"MEAN_MOTION_DOT":0.00001073,"MEAN_MOTION_DDOT":0},{"OBJECT_NAME":"KUIPER-00169","OBJECT_ID":"2025-217W","EPOCH":"2026-07-16T10:33:11.598912","CLASSIFICATION_TYPE":"U","MEAN_MOTION":14.7993088,"ECCENTRICITY":0.0000544,"INCLINATION":51.9002,"RA_OF_ASC_NODE":183.7843,"ARG_OF_PERICENTER":101.2282,"MEAN_ANOMALY":258.8741,"EPHEMERIS_TYPE":0,"NORAD_CAT_ID":65782,"ELEMENT_SET_NO":999,"REV_AT_EPOCH":4408,"BSTAR":-0.000039127,"MEAN_MOTION_DOT":-0.00000519,"MEAN_MOTION_DDOT":0},{"OBJECT_NAME":"KUIPER-00170","OBJECT_ID":"2025-217X","EPOCH":"2026-07-16T12:02:41.460864","CLASSIFICATION_TYPE":"U","MEAN_MOTION":14.79929585,"ECCENTRICITY":0.0000542,"INCLINATION":51.898,"RA_OF_ASC_NODE":188.468,"ARG_OF_PERICENTER":65.5137,"MEAN_ANOMALY":294.5882,"EPHEMERIS_TYPE":0,"NORAD_CAT_ID":65783,"ELEMENT_SET_NO":999,"REV_AT_EPOCH":4402,"BSTAR":0.00016925,"MEAN_MOTION_DOT":0.00001069,"MEAN_MOTION_DDOT":0},{"OBJECT_NAME":"KUIPER-00172","OBJECT_ID":"2025-217Z","EPOCH":"2026-07-16T08:26:44.678400","CLASSIFICATION_TYPE":"U","MEAN_MOTION":14.79938257,"ECCENTRICITY":0.0000885,"INCLINATION":51.8987,"RA_OF_ASC_NODE":171.6609,"ARG_OF_PERICENTER":86.7274,"MEAN_ANOMALY":273.3789,"EPHEMERIS_TYPE":0,"NORAD_CAT_ID":65785,"ELEMENT_SET_NO":999,"REV_AT_EPOCH":4424,"BSTAR":0.00019662,"MEAN_MOTION_DOT":0.00001278,"MEAN_MOTION_DDOT":0},{"OBJECT_NAME":"KUIPER-00173","OBJECT_ID":"2025-217AA","EPOCH":"2026-07-16T06:30:00.982080","CLASSIFICATION_TYPE":"U","MEAN_MOTION":14.79931938,"ECCENTRICITY":0.0000635,"INCLINATION":51.9004,"RA_OF_ASC_NODE":184.527,"ARG_OF_PERICENTER":72.8557,"MEAN_ANOMALY":287.2475,"EPHEMERIS_TYPE":0,"NORAD_CAT_ID":65786,"ELEMENT_SET_NO":999,"REV_AT_EPOCH":4405,"BSTAR":0.00034776,"MEAN_MOTION_DOT":0.00002431,"MEAN_MOTION_DDOT":0},{"OBJECT_NAME":"KUIPER-00174","OBJECT_ID":"2025-217AB","EPOCH":"2026-07-16T03:23:20.446368","CLASSIFICATION_TYPE":"U","MEAN_MOTION":14.79919193,"ECCENTRICITY":0.00006344,"INCLINATION":51.9004,"RA_OF_ASC_NODE":180.1497,"ARG_OF_PERICENTER":60.6385,"MEAN_ANOMALY":299.464,"EPHEMERIS_TYPE":0,"NORAD_CAT_ID":65787,"ELEMENT_SET_NO":999,"REV_AT_EPOCH":4410,"BSTAR":-0.000059030473,"MEAN_MOTION_DOT":-0.00000671,"MEAN_MOTION_DDOT":0},{"OBJECT_NAME":"KUIPER-00176","OBJECT_ID":"2025-217AC","EPOCH":"2026-07-16T11:06:17.030304","CLASSIFICATION_TYPE":"U","MEAN_MOTION":14.79927323,"ECCENTRICITY":0.0000467,"INCLINATION":51.899,"RA_OF_ASC_NODE":193.6625,"ARG_OF_PERICENTER":68.5055,"MEAN_ANOMALY":291.5957,"EPHEMERIS_TYPE":0,"NORAD_CAT_ID":65788,"ELEMENT_SET_NO":999,"REV_AT_EPOCH":4394,"BSTAR":0.00017174,"MEAN_MOTION_DOT":0.00001088,"MEAN_MOTION_DDOT":0},{"OBJECT_NAME":"KUIPER-00101","OBJECT_ID":"2025-228A","EPOCH":"2026-07-16T06:31:55.386048","CLASSIFICATION_TYPE":"U","MEAN_MOTION":14.79933499,"ECCENTRICITY":0.0000688,"INCLINATION":51.8976,"RA_OF_ASC_NODE":151.962,"ARG_OF_PERICENTER":77.4036,"MEAN_ANOMALY":282.7003,"EPHEMERIS_TYPE":0,"NORAD_CAT_ID":65947,"ELEMENT_SET_NO":999,"REV_AT_EPOCH":4227,"BSTAR":0.00021955,"MEAN_MOTION_DOT":0.00001453,"MEAN_MOTION_DDOT":0},{"OBJECT_NAME":"KUIPER-00113","OBJECT_ID":"2025-228B","EPOCH":"2026-07-16T20:26:15.791424","CLASSIFICATION_TYPE":"U","MEAN_MOTION":14.79929442,"ECCENTRICITY":0.0000822,"INCLINATION":51.8994,"RA_OF_ASC_NODE":144.4202,"ARG_OF_PERICENTER":65.7303,"MEAN_ANOMALY":294.3745,"EPHEMERIS_TYPE":0,"NORAD_CAT_ID":65948,"ELEMENT_SET_NO":999,"REV_AT_EPOCH":4242,"BSTAR":0.000071779,"MEAN_MOTION_DOT":0.00000326,"MEAN_MOTION_DDOT":0}]}
